{
  "type": "FeatureCollection",
  "features": [
    {
      "type": "Feature",
      "properties": {
        "norad_id": 31235,
        "name": "FENGYUN 1C DEB",
        "group": "fengyun-1c-debris",
        "lat": 50.15680002028383,
        "lon": 135.87573308161336,
        "alt_km": 764.2653138109854,
        "timestamp": "2025-12-24T09:46:31.285330+00:00",
        "meta_object_name": "FENGYUN 1C DEB",
        "meta_object_id": "1999-025BLR",
        "meta_epoch": "2025-12-24T02:46:21.503424",
        "meta_mean_motion": 14.18770201,
        "meta_eccentricity": 0.0179859,
        "meta_inclination": 98.4674,
        "meta_ra_of_asc_node": 145.8804,
        "meta_arg_of_pericenter": 348.7908,
        "meta_mean_anomaly": 10.9286,
        "meta_ephemeris_type": 0,
        "meta_classification_type": "U",
        "meta_norad_cat_id": 31235,
        "meta_element_set_no": 999,
        "meta_rev_at_epoch": 63328,
        "meta_bstar": 0.0032767,
        "meta_mean_motion_dot": 7.96e-05,
        "meta_mean_motion_ddot": 0,
        "tle_line1": "1 31235U 99025BLR 25358.11552666  .00007960  00000+0  32767-2 0  9992",
        "tle_line2": "2 31235  98.4674 145.8804 0179859 348.7908  10.9286 14.18770201633281"
      },
      "geometry": {
        "type": "Point",
        "coordinates": [
          135.87573308161336,
          50.15680002028383
        ]
      }
    },
    {
      "type": "Feature",
      "properties": {
        "norad_id": 31236,
        "name": "FENGYUN 1C DEB",
        "group": "fengyun-1c-debris",
        "lat": -14.878346753759306,
        "lon": -45.08020341455942,
        "alt_km": 745.5818463658316,
        "timestamp": "2025-12-24T09:46:31.285340+00:00",
        "meta_object_name": "FENGYUN 1C DEB",
        "meta_object_id": "1999-025BLS",
        "meta_epoch": "2025-12-23T19:59:02.166144",
        "meta_mean_motion": 13.86019444,
        "meta_eccentricity": 0.03149414,
        "meta_inclination": 98.5455,
        "meta_ra_of_asc_node": 312.105,
        "meta_arg_of_pericenter": 16.5726,
        "meta_mean_anomaly": 344.545,
        "meta_ephemeris_type": 0,
        "meta_classification_type": "U",
        "meta_norad_cat_id": 31236,
        "meta_element_set_no": 999,
        "meta_rev_at_epoch": 61178,
        "meta_bstar": 0.0059238181,
        "meta_mean_motion_dot": 0.00010034,
        "meta_mean_motion_ddot": 0,
        "tle_line1": "1 31236U 99025BLS 25357.83266396  .00010034  00000+0  59238-2 0  9991",
        "tle_line2": "2 31236  98.5455 312.1050 0314941  16.5726 344.5450 13.86019444611782"
      },
      "geometry": {
        "type": "Point",
        "coordinates": [
          -45.08020341455942,
          -14.878346753759306
        ]
      }
    },
    {
      "type": "Feature",
      "properties": {
        "norad_id": 31237,
        "name": "FENGYUN 1C DEB",
        "group": "fengyun-1c-debris",
        "lat": 23.603611547622965,
        "lon": -6.765315773932426,
        "alt_km": 763.8866211470377,
        "timestamp": "2025-12-24T09:46:31.285350+00:00",
        "meta_object_name": "FENGYUN 1C DEB",
        "meta_object_id": "1999-025BLT",
        "meta_epoch": "2025-12-23T18:34:00.359328",
        "meta_mean_motion": 14.31422507,
        "meta_eccentricity": 0.00884208,
        "meta_inclination": 98.4539,
        "meta_ra_of_asc_node": 356.3439,
        "meta_arg_of_pericenter": 316.2174,
        "meta_mean_anomaly": 43.2021,
        "meta_ephemeris_type": 0,
        "meta_classification_type": "U",
        "meta_norad_cat_id": 31237,
        "meta_element_set_no": 999,
        "meta_rev_at_epoch": 97424,
        "meta_bstar": 0.00051858077,
        "meta_mean_motion_dot": 1.393e-05,
        "meta_mean_motion_ddot": 0,
        "tle_line1": "1 31237U 99025BLT 25357.77361527  .00001393  00000+0  51858-3 0  9996",
        "tle_line2": "2 31237  98.4539 356.3439 0088420 316.2174  43.2021 14.31422507974242"
      },
      "geometry": {
        "type": "Point",
        "coordinates": [
          -6.765315773932426,
          23.603611547622965
        ]
      }
    },
    {
      "type": "Feature",
      "properties": {
        "norad_id": 31239,
        "name": "FENGYUN 1C DEB",
        "group": "fengyun-1c-debris",
        "lat": 32.227875428468536,
        "lon": -12.541438008698481,
        "alt_km": 881.9130100726379,
        "timestamp": "2025-12-24T09:46:31.285360+00:00",
        "meta_object_name": "FENGYUN 1C DEB",
        "meta_object_id": "1999-025BLV",
        "meta_epoch": "2025-12-22T10:40:48.387072",
        "meta_mean_motion": 14.09873842,
        "meta_eccentricity": 0.00497421,
        "meta_inclination": 98.7583,
        "meta_ra_of_asc_node": 351.126,
        "meta_arg_of_pericenter": 170.4598,
        "meta_mean_anomaly": 348.5001,
        "meta_ephemeris_type": 0,
        "meta_classification_type": "U",
        "meta_norad_cat_id": 31239,
        "meta_element_set_no": 999,
        "meta_rev_at_epoch": 96148,
        "meta_bstar": 0.00037093565,
        "meta_mean_motion_dot": 6.18e-06,
        "meta_mean_motion_ddot": 0,
        "tle_line1": "1 31239U 99025BLV 25356.44500448  .00000618  00000+0  37094-3 0  9993",
        "tle_line2": "2 31239  98.7583 351.1260 0049742 170.4598 348.5001 14.09873842961483"
      },
      "geometry": {
        "type": "Point",
        "coordinates": [
          -12.541438008698481,
          32.227875428468536
        ]
      }
    },
    {
      "type": "Feature",
      "properties": {
        "norad_id": 31241,
        "name": "FENGYUN 1C DEB",
        "group": "fengyun-1c-debris",
        "lat": 2.8641543518350137,
        "lon": -33.425075747460106,
        "alt_km": 723.6585394388685,
        "timestamp": "2025-12-24T09:46:31.285371+00:00",
        "meta_object_name": "FENGYUN 1C DEB",
        "meta_object_id": "1999-025BLX",
        "meta_epoch": "2025-12-23T16:16:05.795040",
        "meta_mean_motion": 14.3873549,
        "meta_eccentricity": 0.00670939,
        "meta_inclination": 99.2336,
        "meta_ra_of_asc_node": 145.3243,
        "meta_arg_of_pericenter": 149.0502,
        "meta_mean_anomaly": 211.4664,
        "meta_ephemeris_type": 0,
        "meta_classification_type": "U",
        "meta_norad_cat_id": 31241,
        "meta_element_set_no": 999,
        "meta_rev_at_epoch": 97848,
        "meta_bstar": 0.00057939363,
        "meta_mean_motion_dot": 1.776e-05,
        "meta_mean_motion_ddot": 0,
        "tle_line1": "1 31241U 99025BLX 25357.67784485  .00001776  00000+0  57939-3 0  9993",
        "tle_line2": "2 31241  99.2336 145.3243 0067093 149.0502 211.4664 14.38735490978487"
      },
      "geometry": {
        "type": "Point",
        "coordinates": [
          -33.425075747460106,
          2.8641543518350137
        ]
      }
    },
    {
      "type": "Feature",
      "properties": {
        "norad_id": 31243,
        "name": "FENGYUN 1C DEB",
        "group": "fengyun-1c-debris",
        "lat": -37.590594911666756,
        "lon": -148.51153019977014,
        "alt_km": 868.4471419508873,
        "timestamp": "2025-12-24T09:46:31.285381+00:00",
        "meta_object_name": "FENGYUN 1C DEB",
        "meta_object_id": "1999-025BLZ",
        "meta_epoch": "2025-12-23T13:58:38.376768",
        "meta_mean_motion": 14.07196727,
        "meta_eccentricity": 0.00662588,
        "meta_inclination": 98.7491,
        "meta_ra_of_asc_node": 37.4986,
        "meta_arg_of_pericenter": 138.173,
        "meta_mean_anomaly": 222.453,
        "meta_ephemeris_type": 0,
        "meta_classification_type": "U",
        "meta_norad_cat_id": 31243,
        "meta_element_set_no": 999,
        "meta_rev_at_epoch": 69460,
        "meta_bstar": 0.00056007275,
        "meta_mean_motion_dot": 9.15e-06,
        "meta_mean_motion_ddot": 0,
        "tle_line1": "1 31243U 99025BLZ 25357.58238862  .00000915  00000+0  56007-3 0  9997",
        "tle_line2": "2 31243  98.7491  37.4986 0066258 138.1730 222.4530 14.07196727694607"
      },
      "geometry": {
        "type": "Point",
        "coordinates": [
          -148.51153019977014,
          -37.590594911666756
        ]
      }
    },
    {
      "type": "Feature",
      "properties": {
        "norad_id": 31244,
        "name": "FENGYUN 1C DEB",
        "group": "fengyun-1c-debris",
        "lat": -22.947606919117533,
        "lon": -121.86136947627526,
        "alt_km": 840.2164192175669,
        "timestamp": "2025-12-24T09:46:31.285391+00:00",
        "meta_object_name": "FENGYUN 1C DEB",
        "meta_object_id": "1999-025BMA",
        "meta_epoch": "2025-12-22T10:42:55.008864",
        "meta_mean_motion": 14.0626394,
        "meta_eccentricity": 0.01029519,
        "meta_inclination": 99.0337,
        "meta_ra_of_asc_node": 60.0445,
        "meta_arg_of_pericenter": 148.0726,
        "meta_mean_anomaly": 212.6736,
        "meta_ephemeris_type": 0,
        "meta_classification_type": "U",
        "meta_norad_cat_id": 31244,
        "meta_element_set_no": 999,
        "meta_rev_at_epoch": 57776,
        "meta_bstar": 0.00030551963,
        "meta_mean_motion_dot": 4.84e-06,
        "meta_mean_motion_ddot": 0,
        "tle_line1": "1 31244U 99025BMA 25356.44647001  .00000484  00000+0  30552-3 0  9999",
        "tle_line2": "2 31244  99.0337  60.0445 0102951 148.0726 212.6736 14.06263940577766"
      },
      "geometry": {
        "type": "Point",
        "coordinates": [
          -121.86136947627526,
          -22.947606919117533
        ]
      }
    }
  ]
}